[{"OBJECT_NAME":"ONEWEB-0087","OBJECT_ID":"2020-020AD","EPOCH":"2025-12-30T04:28:34.378464","MEAN_MOTION":13.11419228,"ECCENTRICITY":0.00019961,"INCLINATION":87.8857,"RA_OF_ASC_NODE":54.6681,"ARG_OF_PERICENTER":93.55,"MEAN_ANOMALY":266.5856,"EPHEMERIS_TYPE":0,"CLASSIFICATION_TYPE":"U","NORAD_CAT_ID":45451,"ELEMENT_SET_NO":999,"REV_AT_EPOCH":28043,"BSTAR":-0.0007091148,"MEAN_MOTION_DOT":-2.39e-6,"MEAN_MOTION_DDOT":0},{"OBJECT_NAME":"ONEWEB-0082","OBJECT_ID":"2020-020AE","EPOCH":"2025-12-30T04:23:53.251872","MEAN_MOTION":13.11417662,"ECCENTRICITY":0.00019396,"INCLINATION":87.8858,"RA_OF_ASC_NODE":54.694,"ARG_OF_PERICENTER":94.3802,"MEAN_ANOMALY":265.7548,"EPHEMERIS_TYPE":0,"CLASSIFICATION_TYPE":"U","NORAD_CAT_ID":45452,"ELEMENT_SET_NO":999,"REV_AT_EPOCH":28052,"BSTAR":-0.0010655223,"MEAN_MOTION_DOT":-3.65e-6,"MEAN_MOTION_DDOT":0},{"OBJECT_NAME":"ONEWEB-0050","OBJECT_ID":"2020-020AF","EPOCH":"2025-12-30T05:46:26.286528","MEAN_MOTION":14.89677397,"ECCENTRICITY":0.00021503,"INCLINATION":88.9232,"RA_OF_ASC_NODE":256.2559,"ARG_OF_PERICENTER":162.5764,"MEAN_ANOMALY":197.5539,"EPHEMERIS_TYPE":0,"CLASSIFICATION_TYPE":"U","NORAD_CAT_ID":45453,"ELEMENT_SET_NO":999,"REV_AT_EPOCH":31522,"BSTAR":0.00057492637,"MEAN_MOTION_DOT":5.517e-5,"MEAN_MOTION_DDOT":0},{"OBJECT_NAME":"ONEWEB-0034","OBJECT_ID":"2020-020AG","EPOCH":"2025-12-30T04:54:25.109856","MEAN_MOTION":13.11418632,"ECCENTRICITY":0.00017729,"INCLINATION":87.8845,"RA_OF_ASC_NODE":54.7017,"ARG_OF_PERICENTER":98.7128,"MEAN_ANOMALY":261.42,"EPHEMERIS_TYPE":0,"CLASSIFICATION_TYPE":"U","NORAD_CAT_ID":45454,"ELEMENT_SET_NO":999,"REV_AT_EPOCH":28044,"BSTAR":0.0011137048,"MEAN_MOTION_DOT":4.07e-6,"MEAN_MOTION_DDOT":0},{"OBJECT_NAME":"ONEWEB-0060","OBJECT_ID":"2020-020AH","EPOCH":"2025-12-30T04:12:52.755840","MEAN_MOTION":13.1141558,"ECCENTRICITY":0.0002502,"INCLINATION":87.8831,"RA_OF_ASC_NODE":54.7233,"ARG_OF_PERICENTER":79.3375,"MEAN_ANOMALY":280.8035,"EPHEMERIS_TYPE":0,"CLASSIFICATION_TYPE":"U","NORAD_CAT_ID":45455,"ELEMENT_SET_NO":999,"REV_AT_EPOCH":28039,"BSTAR":-0.0013950862,"MEAN_MOTION_DOT":-4.82e-6,"MEAN_MOTION_DDOT":0},{"OBJECT_NAME":"ONEWEB-0086","OBJECT_ID":"2020-020AJ","EPOCH":"2025-12-30T03:42:23.458752","MEAN_MOTION":13.11414277,"ECCENTRICITY":0.00017703,"INCLINATION":87.8843,"RA_OF_ASC_NODE":54.7087,"ARG_OF_PERICENTER":73.7781,"MEAN_ANOMALY":286.3542,"EPHEMERIS_TYPE":0,"CLASSIFICATION_TYPE":"U","NORAD_CAT_ID":45456,"ELEMENT_SET_NO":999,"REV_AT_EPOCH":28045,"BSTAR":0.00011591403,"MEAN_MOTION_DOT":5.4e-7,"MEAN_MOTION_DDOT":0},{"OBJECT_NAME":"ONEWEB-0088","OBJECT_ID":"2020-020AK","EPOCH":"2025-12-30T05:00:32.650272","MEAN_MOTION":13.11418444,"ECCENTRICITY":0.00020118,"INCLINATION":87.8857,"RA_OF_ASC_NODE":54.6553,"ARG_OF_PERICENTER":104.2784,"MEAN_ANOMALY":255.8567,"EPHEMERIS_TYPE":0,"CLASSIFICATION_TYPE":"U","NORAD_CAT_ID":45457,"ELEMENT_SET_NO":999,"REV_AT_EPOCH":28039,"BSTAR":0.0015712459,"MEAN_MOTION_DOT":5.7e-6,"MEAN_MOTION_DDOT":0},{"OBJECT_NAME":"ONEWEB-0102","OBJECT_ID":"2020-100A","EPOCH":"2025-12-30T02:47:15.630432","MEAN_MOTION":13.12444061,"ECCENTRICITY":0.00016185,"INCLINATION":87.8921,"RA_OF_ASC_NODE":24.2635,"ARG_OF_PERICENTER":91.8963,"MEAN_ANOMALY":268.2351,"EPHEMERIS_TYPE":0,"CLASSIFICATION_TYPE":"U","NORAD_CAT_ID":47258,"ELEMENT_SET_NO":999,"REV_AT_EPOCH":24255,"BSTAR":0.00074439422,"MEAN_MOTION_DOT":2.81e-6,"MEAN_MOTION_DDOT":0},{"OBJECT_NAME":"ONEWEB-0109","OBJECT_ID":"2020-100B","EPOCH":"2025-12-30T02:59:28.928832","MEAN_MOTION":13.12442882,"ECCENTRICITY":0.00016124,"INCLINATION":87.8926,"RA_OF_ASC_NODE":24.2318,"ARG_OF_PERICENTER":92.3986,"MEAN_ANOMALY":267.7327,"EPHEMERIS_TYPE":0,"CLASSIFICATION_TYPE":"U","NORAD_CAT_ID":47259,"ELEMENT_SET_NO":999,"REV_AT_EPOCH":24238,"BSTAR":0.0013897721,"MEAN_MOTION_DOT":5.13e-6,"MEAN_MOTION_DDOT":0},{"OBJECT_NAME":"ONEWEB-0110","OBJECT_ID":"2020-100C","EPOCH":"2025-12-30T07:18:05.211072","MEAN_MOTION":13.12440631,"ECCENTRICITY":0.00017843,"INCLINATION":87.8929,"RA_OF_ASC_NODE":24.1805,"ARG_OF_PERICENTER":83.965,"MEAN_ANOMALY":276.1682,"EPHEMERIS_TYPE":0,"CLASSIFICATION_TYPE":"U","NORAD_CAT_ID":47260,"ELEMENT_SET_NO":999,"REV_AT_EPOCH":24257,"BSTAR":-0.00025913585,"MEAN_MOTION_DOT":-8.1e-7,"MEAN_MOTION_DDOT":0},{"OBJECT_NAME":"ONEWEB-0111","OBJECT_ID":"2020-100D","EPOCH":"2025-12-30T08:02:00.502656","MEAN_MOTION":13.12452681,"ECCENTRICITY":0.00019371,"INCLINATION":87.893,"RA_OF_ASC_NODE":24.1926,"ARG_OF_PERICENTER":90.7957,"MEAN_ANOMALY":269.3393,"EPHEMERIS_TYPE":0,"CLASSIFICATION_TYPE":"U","NORAD_CAT_ID":47261,"ELEMENT_SET_NO":999,"REV_AT_EPOCH":24241,"BSTAR":-0.0003574769,"MEAN_MOTION_DOT":-1.16e-6,"MEAN_MOTION_DDOT":0},{"OBJECT_NAME":"ONEWEB-0114","OBJECT_ID":"2020-100E","EPOCH":"2025-12-30T06:56:07.668096","MEAN_MOTION":13.1244164,"ECCENTRICITY":0.00014757,"INCLINATION":87.8929,"RA_OF_ASC_NODE":24.1964,"ARG_OF_PERICENTER":102.2118,"MEAN_ANOMALY":257.9176,"EPHEMERIS_TYPE":0,"CLASSIFICATION_TYPE":"U","NORAD_CAT_ID":47262,"ELEMENT_SET_NO":999,"REV_AT_EPOCH":24236,"BSTAR":0.0010415736,"MEAN_MOTION_DOT":3.87e-6,"MEAN_MOTION_DDOT":0},{"OBJECT_NAME":"ONEWEB-0117","OBJECT_ID":"2020-100F","EPOCH":"2025-12-30T03:04:21.787680","MEAN_MOTION":13.1244202,"ECCENTRICITY":0.0001738,"INCLINATION":87.8927,"RA_OF_ASC_NODE":24.2249,"ARG_OF_PERICENTER":91.8517,"MEAN_ANOMALY":268.2811,"EPHEMERIS_TYPE":0,"CLASSIFICATION_TYPE":"U","NORAD_CAT_ID":47263,"ELEMENT_SET_NO":999,"REV_AT_EPOCH":24235,"BSTAR":0.0014234092,"MEAN_MOTION_DOT":5.25e-6,"MEAN_MOTION_DDOT":0},{"OBJECT_NAME":"ONEWEB-0118","OBJECT_ID":"2020-100G","EPOCH":"2025-12-30T07:32:43.316736","MEAN_MOTION":13.12440485,"ECCENTRICITY":0.00017035,"INCLINATION":87.8926,"RA_OF_ASC_NODE":24.188,"ARG_OF_PERICENTER":105.3622,"MEAN_ANOMALY":254.7695,"EPHEMERIS_TYPE":0,"CLASSIFICATION_TYPE":"U","NORAD_CAT_ID":47264,"ELEMENT_SET_NO":999,"REV_AT_EPOCH":24257,"BSTAR":-0.0010447484,"MEAN_MOTION_DOT":-3.63e-6,"MEAN_MOTION_DDOT":0},{"OBJECT_NAME":"ONEWEB-0119","OBJECT_ID":"2020-100H","EPOCH":"2025-12-30T02:39:56.070432","MEAN_MOTION":13.12444835,"ECCENTRICITY":0.00017204,"INCLINATION":87.892,"RA_OF_ASC_NODE":24.2609,"ARG_OF_PERICENTER":92.3672,"MEAN_ANOMALY":267.7653,"EPHEMERIS_TYPE":0,"CLASSIFICATION_TYPE":"U","NORAD_CAT_ID":47265,"ELEMENT_SET_NO":999,"REV_AT_EPOCH":24252,"BSTAR":0.00014563043,"MEAN_MOTION_DOT":6.5e-7,"MEAN_MOTION_DDOT":0},{"OBJECT_NAME":"ONEWEB-0120","OBJECT_ID":"2020-100J","EPOCH":"2025-12-30T06:53:52.606752","MEAN_MOTION":13.12441104,"ECCENTRICITY":0.00016697,"INCLINATION":87.8919,"RA_OF_ASC_NODE":24.227,"ARG_OF_PERICENTER":94.4414,"MEAN_ANOMALY":265.6905,"EPHEMERIS_TYPE":0,"CLASSIFICATION_TYPE":"U","NORAD_CAT_ID":47266,"ELEMENT_SET_NO":999,"REV_AT_EPOCH":24257,"BSTAR":0.0010642638,"MEAN_MOTION_DOT":3.96e-6,"MEAN_MOTION_DDOT":0},{"OBJECT_NAME":"ONEWEB-0121","OBJECT_ID":"2020-100K","EPOCH":"2025-12-30T02:57:01.666080","MEAN_MOTION":13.12443662,"ECCENTRICITY":0.00018526,"INCLINATION":87.8926,"RA_OF_ASC_NODE":24.2297,"ARG_OF_PERICENTER":86.5826,"MEAN_ANOMALY":273.5515,"EPHEMERIS_TYPE":0,"CLASSIFICATION_TYPE":"U","NORAD_CAT_ID":47267,"ELEMENT_SET_NO":999,"REV_AT_EPOCH":24246,"BSTAR":0.0012601824,"MEAN_MOTION_DOT":4.66e-6,"MEAN_MOTION_DDOT":0}]
