ONEWEB-0087             
1 45451U 20020AD  25364.18650901 -.00000239  00000+0 -70911-3 0  9999
2 45451  87.8857  54.6681 0001996  93.5500 266.5856 13.11419228280438
ONEWEB-0082             
1 45452U 20020AE  25364.18325523 -.00000365  00000+0 -10655-2 0  9997
2 45452  87.8858  54.6940 0001939  94.3802 265.7548 13.11417662280528
ONEWEB-0050             
1 45453U 20020AF  25364.24058202  .00005517  00000+0  57493-3 0  9996
2 45453  88.9232 256.2559 0002150 162.5764 197.5539 14.89677397315221
ONEWEB-0034             
1 45454U 20020AG  25364.20445729  .00000407  00000+0  11137-2 0  9994
2 45454  87.8845  54.7017 0001772  98.7128 261.4200 13.11418632280443
ONEWEB-0060             
1 45455U 20020AH  25364.17561060 -.00000482  00000+0 -13951-2 0  9999
2 45455  87.8831  54.7233 0002502  79.3375 280.8035 13.11415580280394
ONEWEB-0086             
1 45456U 20020AJ  25364.15443818  .00000054  00000+0  11591-3 0  9990
2 45456  87.8843  54.7087 0001770  73.7781 286.3542 13.11414277280453
ONEWEB-0088             
1 45457U 20020AK  25364.20871123  .00000570  00000+0  15712-2 0  9992
2 45457  87.8857  54.6553 0002011 104.2784 255.8567 13.11418444280399
ONEWEB-0102             
1 47258U 20100A   25364.11615313  .00000281  00000+0  74439-3 0  9990
2 47258  87.8921  24.2635 0001618  91.8963 268.2351 13.12444061242558
ONEWEB-0109             
1 47259U 20100B   25364.12464038  .00000513  00000+0  13898-2 0  9997
2 47259  87.8926  24.2318 0001612  92.3986 267.7327 13.12442882242384
ONEWEB-0110             
1 47260U 20100C   25364.30422698 -.00000081  00000+0 -25914-3 0  9990
2 47260  87.8929  24.1805 0001784  83.9650 276.1682 13.12440631242572
ONEWEB-0111             
1 47261U 20100D   25364.33472804 -.00000116  00000+0 -35748-3 0  9993
2 47261  87.8930  24.1926 0001937  90.7957 269.3393 13.12452681242419
ONEWEB-0114             
1 47262U 20100E   25364.28897764  .00000387  00000+0  10416-2 0  9996
2 47262  87.8929  24.1964 0001475 102.2118 257.9176 13.12441640242364
ONEWEB-0117             
1 47263U 20100F   25364.12802995  .00000525  00000+0  14234-2 0  9998
2 47263  87.8927  24.2249 0001738  91.8517 268.2811 13.12442020242351
ONEWEB-0118             
1 47264U 20100G   25364.31439024 -.00000363  00000+0 -10447-2 0  9993
2 47264  87.8926  24.1880 0001703 105.3622 254.7695 13.12440485242578
ONEWEB-0119             
1 47265U 20100H   25364.11106563  .00000065  00000+0  14563-3 0  9992
2 47265  87.8920  24.2609 0001720  92.3672 267.7653 13.12444835242528
ONEWEB-0120             
1 47266U 20100J   25364.28741443  .00000396  00000+0  10643-2 0  9994
2 47266  87.8919  24.2270 0001669  94.4414 265.6905 13.12441104242578
ONEWEB-0121             
1 47267U 20100K   25364.12293595  .00000466  00000+0  12602-2 0  9993
2 47267  87.8926  24.2297 0001852  86.5826 273.5515 13.12443662242463
